<?xml version="1.0" encoding="UTF-8"?>
<osm version="0.6" generator="Overpass API 0.7.62.11 87bfad18">
<note>The data included in this document is from www.openstreetmap.org. The data is made available under ODbL.</note>
<meta osm_base="2026-09-12T09:16:51Z"/>

  <node id="14167907666" lat="53.5645434" lon="-113.4373911" version="2" timestamp="2026-09-12T08:51:34Z" changeset="188905312" uid="23492813" user="confusedbuffalo-bot">
    <tag k="addr:housenumber" v="11155"/>
    <tag k="addr:street" v="65 Street NW"/>
    <tag k="check_date" v="2026-09-09"/>
    <tag k="contact:facebook" v="https://www.facebook.com/bestedmontonrealestate/"/>
    <tag k="description" v="At Best Edmonton Real Estate, we prioritize our clients' needs with unparalleled dedication and expertise. With years of experience in the Edmonton real estate market, our team is equipped to guide you through every step of the buying or selling process. "/>
    <tag k="name" v="Best Edmonton Real Estate"/>
    <tag k="office" v="estate_agent"/>
    <tag k="payment:bitcoin" v="yes"/>
    <tag k="payment:cash" v="yes"/>
    <tag k="payment:credit_cards" v="yes"/>
    <tag k="payment:debit_cards" v="yes"/>
    <tag k="phone" v="+1-587-803-0444"/>
    <tag k="website" v="https://bestedmontonrealestate.com"/>
    <tag k="wheelchair" v="yes"/>
  </node>

</osm>
