<?xml version='1.0' encoding='utf-8'?>
<kml xmlns="http://www.opengis.net/kml/2.2"><Document><Placemark><Point><coordinates>-113.4373911,53.5645434</coordinates></Point><name>Best Edmonton Real Estate</name><description>addr:housenumber: 11155&lt;br&gt;addr:street: 65 Street NW&lt;br&gt;phone: &lt;a href="tel:+1-587-803-0444"&gt;+1-587-803-0444&lt;/a&gt;&lt;br&gt;website: &lt;a href="https://bestedmontonrealestate.com" target="_blank"&gt;https://bestedmontonrealestate.com&lt;/a&gt;</description></Placemark></Document></kml>